full_name,a,e,i,om,w,q,ad,per_y,data_arc,H
  4779 Whitley (1978 XQ),3.207,0.113,0.94,185.27,327.65,2.844,3.57,5.74,25393,12.61
  4780 Polina (1979 HE5),2.17,0.0607,4.68,108.11,119.5,2.039,2.3,3.2,16456,14.39
  4781 Sladkovic (1980 TP),2.157,0.1897,1.68,158.66,190.19,1.748,2.57,3.17,22854,14.27
  4782 Gembloux (1980 TH3),2.841,0.0737,1.33,339.02,349.69,2.632,3.05,4.79,26500,12.37
  4783 Wasson (1983 AH1),2.556,0.2028,16.55,109.13,357.72,2.038,3.07,4.09,15100,13.46
  4784 Samcarin (1984 DF1),2.678,0.1155,3.55,348.86,170.17,2.369,2.99,4.38,26055,13.4
  4785 Petrov (1984 YH1),2.665,0.0621,2.67,301.32,113.88,2.499,2.83,4.35,16709,13.64
  4786 Tatianina (1985 PE2),2.357,0.1953,7.25,115.7,118.37,1.897,2.82,3.62,19703,13.46
  4787 Shul'zhenko (1986 RC7),2.258,0.113,5.05,349.54,9.68,2.003,2.51,3.39,25501,13.86
  4788 Simpson (1986 TL1),2.263,0.1302,4.32,277.14,110.59,1.968,2.56,3.4,17200,13.91
  4789 Sprattia (1987 UU2),2.238,0.1239,1.28,209.65,152.99,1.961,2.52,3.35,17280,14.18
  4790 Petrpravec (1988 PP),2.627,0.0848,12.71,131.26,86.97,2.404,2.85,4.26,16816,13.17
  4791 Iphidamas (1988 PB1),5.155,0.0463,25.98,261.47,164.26,4.916,5.39,11.7,13047,10.15
  4792 Lykaon (1988 RK1),5.249,0.0923,9.34,61.92,284.22,4.765,5.73,12,12069,10.23
  4793 Slessor (1988 RR4),2.669,0.1565,4.36,155.89,63.01,2.251,3.09,4.36,25227,13.32
  4794 Bogard (1988 SO2),2.272,0.1147,5.4,173.99,354.19,2.011,2.53,3.42,19310,13.89
  4795 Kihara (1989 CB1),2.201,0.1526,5.11,133.81,132.58,1.865,2.54,3.26,18031,14.12
  4796 Lewis (1989 LU),2.354,0.1802,2.27,296.3,35.72,1.93,2.78,3.61,18277,13.73
  4797 Ako (1989 SJ),2.411,0.1842,1.81,320.51,78.59,1.967,2.86,3.74,16621,14.39
  4798 Mercator (1989 SU1),2.197,0.1104,3.66,93.55,161.05,1.955,2.44,3.26,25366,13.64
  4799 Hirasawa (1989 TC1),2.47,0.1274,0.62,241.47,82.41,2.156,2.78,3.88,16811,13.93
  4800 Veveri (1989 TG17),3.01,0.1017,10.29,179.39,180.65,2.704,3.32,5.22,16210,11.98
  4801 Ohre (1989 UR4),2.644,0.1625,2.25,66.58,44.19,2.215,3.07,4.3,13915,13.13
  4802 Khatchaturian (1989 UA7),2.218,0.2122,0.74,103.12,213.38,1.747,2.69,3.3,27308,14.86
  4803 Birkle (1989 XA),2.907,0.0333,2.92,46.1,186.68,2.81,3,4.96,26720,12.49
  4804 Pasteur (1989 XC1),2.691,0.116,8.64,103.44,272.39,2.379,3,4.41,24891,12.31
  4805 Asteropaios (1990 VH7),5.196,0.0918,12.02,278.39,90.71,4.719,5.67,11.8,25697,10.16
  4806 Miho (1990 YJ),2.23,0.0971,5.25,169.18,290.86,2.013,2.45,3.33,25753,13.65
  4807 Noboru (1991 AO),2.329,0.2104,0.49,329.95,93.82,1.839,2.82,3.55,34534,13.82
  4808 Ballaero (1925 BA),2.668,0.1624,10.79,302.04,139.51,2.234,3.1,4.36,36141,12.37
  4809 Robertball (1928 RB),2.568,0.2476,13.66,169.2,173.69,1.932,3.2,4.11,34917,13.05
  4810 Ruslanova (1972 GL),2.239,0.1027,7.76,48.07,132.75,2.009,2.47,3.35,25124,13.55
  4811 Semashko (1973 SO3),2.247,0.1822,5.06,8.97,275.29,1.837,2.66,3.37,25082,14.16
  4812 Hakuhou (1977 DL3),2.367,0.2087,4.67,3.58,73.51,1.873,2.86,3.64,26928,14.64
  4813 Terebizh (1977 RR7),3.121,0.1023,11.87,20.79,293.88,2.802,3.44,5.51,17067,12.39
  4814 Casacci (1978 RW),3.233,0.1846,1.45,134.37,200.01,2.636,3.83,5.81,25961,13.02
  4815 Anders (1981 EA28),2.359,0.136,7.55,7.15,355.62,2.038,2.68,3.62,16271,13.98
  4816 Connelly (1981 PK),2.589,0.2732,11.84,274.49,84.47,1.882,3.3,4.17,15588,12.94
  4817 Gliba (1984 DC1),2.347,0.2088,2.16,163.31,252.51,1.857,2.84,3.6,24351,13.9
  4818 Elgar (1984 EM),2.265,0.1301,2.54,169.02,83.41,1.97,2.56,3.41,33237,13.87
  4819 Gifford (1985 KC),2.203,0.0312,5.8,343.99,302.5,2.134,2.27,3.27,25813,14.49
  4820 Fay (1985 RZ),2.856,0.3534,12.45,331.53,96.53,1.846,3.86,4.83,29491,12.17
  4821 Bianucci (1986 EE5),3.148,0.1493,1.19,153.83,327.67,2.678,3.62,5.59,22409,12.89
  4822 Karge (1986 TC1),2.253,0.1857,4.05,141.3,264.7,1.834,2.67,3.38,19328,14.06
  4823 Libenice (1986 TO3),2.159,0.1068,1.12,333.88,53.04,1.929,2.39,3.17,26460,14.53
  4824 Stradonice (1986 WL1),2.288,0.0566,6.47,40.26,42.65,2.159,2.42,3.46,17071,13.97
  4825 Ventura (1988 CS2),2.251,0.166,3.96,305.99,65.79,1.877,2.62,3.38,18271,14.15
  4826 Wilhelms (1988 JO),2.379,0.1925,25.31,95.49,223.4,1.921,2.84,3.67,15138,12.77
  4827 Dares (1988 QE),5.133,0.0443,7.7,241.99,167.86,4.906,5.36,11.6,25241,10.61
  4828 Misenus (1988 RV),5.162,0.0415,14.91,352.97,128.69,4.947,5.38,11.7,12895,10.52
  4829 Sergestus (1988 RM1),5.192,0.052,8.59,221.77,120.35,4.922,5.46,11.8,12936,11.28
  4830 Thomascooley (1988 RG4),2.392,0.0692,6.41,119.48,85.26,2.227,2.56,3.7,17573,13.41
  4831 Baldwin (1988 RX11),3.086,0.1203,0.26,66.27,144.77,2.715,3.46,5.42,26459,12.64
  4832 Palinurus (1988 TU1),5.262,0.1417,19.07,135.14,210,4.517,6.01,12.1,12889,10.06
  4833 Meges (1989 AL2),5.23,0.0922,34.73,101.74,281.69,4.748,5.71,12,17688,9.1
  4834 Thoas (1989 AM2),5.201,0.1368,28.48,75.97,353.14,4.489,5.91,11.9,13668,9.2
  4835 Asaeus (1989 BQ),5.192,0.2524,19.57,125.43,355.61,3.882,6.5,11.8,16392,10.63
  4836 Medon (1989 CK1),5.218,0.1096,19.39,82.06,34.17,4.646,5.79,11.9,13698,9.59
  4837 Bickerton (1989 ME),3.194,0.1383,28.21,327.08,45.8,2.752,3.64,5.71,16688,11.98
  4838 Billmclaughlin (1989 NJ),2.352,0.1445,8.89,217.75,40.81,2.012,2.69,3.61,20824,13.09
  4839 Daisetsuzan (1989 QG),2.435,0.0705,7.58,176.96,181.02,2.263,2.61,3.8,26435,13.29
  4840 Otaynang (1989 UY),3.188,0.0975,15.19,247.28,191.78,2.877,3.5,5.69,24947,12
  4841 Manjiro (1989 UO3),2.309,0.1028,3.88,145.4,288.84,2.071,2.55,3.51,17482,13.88
  4842 Atsushi (1989 WK),2.25,0.1577,2.47,225.43,78,1.895,2.6,3.38,27631,13.7
  4843 Megantic (1990 DR4),3.092,0.1175,11,162.23,223.25,2.729,3.46,5.44,42481,11.95
  4844 Matsuyama (1991 BA2),2.554,0.2189,5.96,248.1,355.21,1.995,3.11,4.08,25162,12.7
  4845 Tsubetsu (1991 EC1),2.4,0.0684,7.58,28.16,224.16,2.236,2.56,3.72,18122,13.33
  4846 Tuthmosis (6575 P-L),3.213,0.1367,5.28,22.74,77.56,2.774,3.65,5.76,25311,13.07
  4847 Amenhotep (6787 P-L),2.166,0.089,0.86,125.48,102.54,1.974,2.36,3.19,22959,14.95
  4848 Tutenchamun (3233 T-2),3.142,0.1295,6.38,132.61,308.8,2.735,3.55,5.57,34365,12.15
  4849 Ardenne (1936 QV),2.279,0.1114,3,190.85,171.43,2.025,2.53,3.44,32043,13.94
  4850 Palestrina (1973 UJ5),2.878,0.0749,1.89,188.2,193.99,2.663,3.09,4.88,25789,13.02
  4851 Vodop'yanova (1976 US1),2.6,0.0588,15.52,26.98,92.26,2.447,2.75,4.19,27454,12.97
  4852 Pamjones (1977 JD),2.304,0.1021,6.77,43.05,232.35,2.069,2.54,3.5,25208,14.11
  4853 Marielukac (1979 ML),2.536,0.2549,8.37,145.47,138,1.889,3.18,4.04,19028,13.57
  4854 Edscott (1981 ED27),2.982,0.0613,10.68,174.51,61.36,2.799,3.16,5.15,25935,13.13
  4855 Tenpyou (1982 VM5),2.232,0.1849,4.75,229.21,52.11,1.819,2.65,3.34,17752,14.21
  4856 Seaborg (1983 LJ),2.56,0.0679,15.02,189.88,270.36,2.386,2.73,4.1,18848,12.17
  4857 Altgamia (1984 FM),2.356,0.2289,24.51,31.57,139.72,1.817,2.9,3.62,14653,13.32
  4858 Vorobjov (1985 UA),2.182,0.1098,3.28,329.91,125.67,1.942,2.42,3.22,13872,14.47
  4859 Fraknoi (1986 TJ2),2.272,0.1356,6.42,122.2,314.51,1.964,2.58,3.42,16125,14
  4860 Gubbio (1987 EP),2.633,0.1463,14.52,338.21,15.84,2.248,3.02,4.27,15895,12.7
  4861 Nemirovskij (1987 QU10),2.887,0.2271,3.54,96.8,233.47,2.232,3.54,4.91,24915,13.1
  4862 Loke (1987 SJ5),2.912,0.24,8.66,199.7,100.49,2.213,3.61,4.97,17562,13.1
  4863 Yasutani (1987 VH1),2.85,0.0213,2.18,25.08,229.14,2.789,2.91,4.81,23958,12.43
  4864 Nimoy (1988 RA5),2.47,0.1772,3.62,94.1,242.05,2.032,2.91,3.88,24260,13.63
  4865 Sor (1988 UJ),3.048,0.0627,10.1,43.21,68.36,2.857,3.24,5.32,17020,12.68
  4866 Badillo (1988 VB3),3.001,0.0781,9.38,213.83,122.26,2.767,3.24,5.2,18628,12.31
  4867 Polites (1989 SZ),5.175,0.0188,27.15,335.18,284.34,5.078,5.27,11.8,12900,9.99
  4868 Knushevia (1989 UN2),1.961,0.0683,22.11,187.49,94.35,1.827,2.09,2.75,14913,15.15
  4869 Piotrovsky (1989 UE8),2.234,0.1747,3.55,96.22,217.58,1.844,2.62,3.34,25208,13.24
  4870 Shcherban' (1989 UK8),3.215,0.0815,9.74,83.45,343.19,2.953,3.48,5.76,33711,11.69
  4871 Riverside (1989 WH1),2.257,0.1082,2.9,263.57,142.07,2.013,2.5,3.39,16187,13.65
  4872 Grieg (1989 YH7),2.726,0.0586,10.71,111.09,8.68,2.567,2.89,4.5,27087,13.37
  4873 Fukaya (1990 EC),3.024,0.0885,10.79,145.88,156.01,2.756,3.29,5.26,24930,12.28
  4874 Burke (1991 AW),2.603,0.1232,14.65,127.43,324.69,2.282,2.92,4.2,26953,12.35
  4875 Ingalls (1991 DJ),2.243,0.1798,5.26,123.77,159.5,1.839,2.65,3.36,33963,13.16
  4876 Strabo (1133 T-2),2.909,0.0255,1.31,214.79,219.26,2.835,2.98,4.96,19358,12.95
  4877 Humboldt (5066 T-2),2.631,0.1352,12.39,228.8,202.88,2.276,2.99,4.27,26555,13.11
  4878 Gilhutton (1968 OF),2.289,0.1534,6.18,223.96,120.56,1.938,2.64,3.46,20143,14.92
  4879 Zykina (1974 VG),3.16,0.0998,10.31,49.1,22.6,2.845,3.48,5.62,18081,12.29
  4880 Tovstonogov (1975 TR4),2.672,0.0357,21.19,218.33,189.56,2.576,2.77,4.37,17692,12.43
  4881 Robmackintosh (1975 XJ),2.314,0.0465,8.08,141.24,350.12,2.206,2.42,3.52,17454,14.38
  4882 Divari (1977 QU2),2.486,0.1004,4.78,200.06,216.83,2.236,2.74,3.92,24838,13.31
  4883 Korolirina (1978 RJ1),2.741,0.2369,5.86,186.71,117.3,2.092,3.39,4.54,19788,13.88
  4884 Bragaria (1979 OK15),2.223,0.1687,4.71,154.84,132.69,1.848,2.6,3.32,25772,13.96
  4885 Grange (1980 LU),2.429,0.1736,3.17,169.52,101.69,2.008,2.85,3.79,25928,14.19
  4886 Kojima (1981 EZ14),2.918,0.2086,4.83,293.89,141.1,2.309,3.53,4.98,25130,14.56
  4887 Takihiroi (1981 EV26),2.923,0.0273,1,288.35,95.89,2.843,3,5,25253,13.64
  4888 Doreen (1981 JX1),2.35,0.0181,4.06,33.24,215.28,2.308,2.39,3.6,15734,13.97
  4889 Praetorius (1982 UW3),3.09,0.1986,13.93,185.57,276.22,2.476,3.7,5.43,16538,12.45
  4890 Shikanosima (1982 VE4),2.205,0.1499,3.65,100.26,185.19,1.874,2.53,3.27,15157,13.95
  4891 Blaga (1984 GR),3.166,0.0612,2.3,338.41,252.5,2.972,3.36,5.63,33288,12.46
  4892 Chrispollas (1985 TV2),2.334,0.1002,8.58,211.65,307.82,2.1,2.57,3.57,23251,13.04
  4893 Seitter (1986 PT4),3.15,0.0876,13.77,151.06,99.42,2.874,3.43,5.59,26690,12.34
